{
    "links": {
        "self": "http://www.neowsapp.com/rest/v1/neo/3653697?api_key=iIulBulltgU6a56xZRHN4H3l9WmuAYTsLGpBGhQ2"
    },
    "id": "3653697",
    "neo_reference_id": "3653697",
    "name": "(2013 VX13)",
    "designation": "2013 VX13",
    "nasa_jpl_url": "http://ssd.jpl.nasa.gov/sbdb.cgi?sstr=3653697",
    "absolute_magnitude_h": 22.1,
    "estimated_diameter": {
        "kilometers": {
            "estimated_diameter_min": 0.1010543415,
            "estimated_diameter_max": 0.2259643771
        },
        "meters": {
            "estimated_diameter_min": 101.054341542,
            "estimated_diameter_max": 225.9643771094
        },
        "miles": {
            "estimated_diameter_min": 0.0627922373,
            "estimated_diameter_max": 0.140407711
        },
        "feet": {
            "estimated_diameter_min": 331.5431259047,
            "estimated_diameter_max": 741.3529669956
        }
    },
    "is_potentially_hazardous_asteroid": false,
    "close_approach_data": [
        {
            "close_approach_date": "2013-10-16",
            "close_approach_date_full": "2013-Oct-16 09:21",
            "epoch_date_close_approach": 1381915260000,
            "relative_velocity": {
                "kilometers_per_second": "14.9905227607",
                "kilometers_per_hour": "53965.8819386532",
                "miles_per_hour": "33532.3003634926"
            },
            "miss_distance": {
                "astronomical": "0.0815732422",
                "lunar": "31.7319912158",
                "kilometers": "12203183.282114114",
                "miles": "7582706.4767342132"
            },
            "orbiting_body": "Earth"
        }
    ],
    "orbital_data": {
        "orbit_id": "7",
        "orbit_determination_date": "2017-04-06 08:43:38",
        "first_observation_date": "2013-11-12",
        "last_observation_date": "2013-11-26",
        "data_arc_in_days": 14,
        "observations_used": 24,
        "orbit_uncertainty": "8",
        "minimum_orbit_intersection": ".0235015",
        "jupiter_tisserand_invariant": "3.601",
        "epoch_osculation": "2456610.5",
        "eccentricity": ".6266955563108331",
        "semi_major_axis": "1.964696043131868",
        "inclination": "6.154285550908705",
        "ascending_node_longitude": "17.37093249163124",
        "orbital_period": "1005.869136233591",
        "perihelion_distance": ".7334297633996496",
        "perihelion_argument": "301.5565614004702",
        "aphelion_distance": "3.195962322864087",
        "perihelion_time": "2456540.112394707071",
        "mean_anomaly": "25.19168447730351",
        "mean_motion": ".3578994394320475",
        "equinox": "J2000",
        "orbit_class": {
            "orbit_class_type": "APO",
            "orbit_class_description": "Near-Earth asteroid orbits which cross the Earth’s orbit similar to that of 1862 Apollo",
            "orbit_class_range": "a (semi-major axis) > 1.0 AU; q (perihelion) < 1.017 AU"
        }
    },
    "is_sentry_object": false
}